ONEWEB-0120             
1 47266U 20100J   24268.51893518 -.00000176  00000+0 -52361-3 0  9995
2 47266  87.8864 116.2858 0001860  78.4210 281.7127 13.12445743182009
ONEWEB-0121             
1 47267U 20100K   24268.81238815  .00000282  00000+0  74935-3 0  9999
2 47267  87.8857 116.2131 0001680  87.4230 272.7091 13.12440941181956
ONEWEB-0122             
1 47268U 20100L   24268.88362105  .00000396  00000+0  10647-2 0  9992
2 47268  87.8860 116.2038 0001785  84.6660 275.4672 13.12441671181876
ONEWEB-0123             
1 47269U 20100M   24268.87889261  .00000412  00000+0  11109-2 0  9992
2 47269  87.8862 116.2221 0001690  79.7862 280.3457 13.12441513182015
ONEWEB-0124             
1 47270U 20100N   24268.86753659  .00000347  00000+0  92858-3 0  9992
2 47270  87.8863 116.2211 0001568  91.0196 269.1113 13.12442240181895
ONEWEB-0125             
1 47271U 20100P   24268.08245094 -.00000221  00000+0 -64852-3 0  9992
2 47271  87.8865 116.3382 0001371  76.0630 284.0651 13.12442547181855
ONEWEB-0126             
1 47272U 20100Q   24268.86996426  .00000400  00000+0  10764-2 0  9990
2 47272  87.8857 116.1830 0001820  80.1671 279.9663 13.12441601182029
ONEWEB-0127             
1 47273U 20100R   24268.29817564 -.00000340  00000+0 -98015-3 0  9994
2 47273  87.8862 116.3289 0001790  82.3442 277.7889 13.12444189181975
